NORAD_CAT_ID,OBJECT_NAME,OBJECT_TYPE,EPOCH,MEAN_MOTION,ECCENTRICITY,INCLINATION,RA_OF_ASC_NODE,ARG_OF_PERICENTER,MEAN_ANOMALY,BSTAR,MEAN_MOTION_DOT,MEAN_MOTION_DDOT,TLE_LINE0,TLE_LINE1,TLE_LINE2,SEMIMAJOR_AXIS,PERIOD,APOGEE,PERIGEE,DECAYED
53775.0,STARLINK-4722,PAYLOAD,2024-06-20 19:10:24,15.08842765,0.0001123,53.2164,208.5795,86.5906,273.5215,9.9829e-05,1.301e-05,0.0,0 STARLINK-4722,1 53775U 22111C   24172.79889734  .00001301  00000-0  99829-4 0  9991,2 53775  53.2164 208.5795 0001123  86.5906 273.5215 15.08842765 98241,6917.872,95.437,540.514,538.96,0.0
53775.0,STARLINK-4722,PAYLOAD,2024-06-21 07:53:30,15.0883827,0.0001212,53.2169,206.2011,89.0613,271.0518,0.0001095,1.455e-05,0.0,0 STARLINK-4722,1 53775U 22111C   24173.32882061  .00001455  00000-0  10950-3 0  9994,2 53775  53.2169 206.2011 0001212  89.0613 271.0518 15.08838270 99138,6917.886,95.438,540.589,538.912,0.0
53775.0,STARLINK-4722,PAYLOAD,2024-06-22 10:55:03,15.08838067,0.0001191,53.2166,201.1462,91.5362,268.5767,-2.627e-06,-3.3e-06,0.0,0 STARLINK-4722,1 53775U 22111C   24174.45490432 -.00000330  00000-0 -26270-5 0  9993,2 53775  53.2166 201.1462 0001191  91.5362 268.5767 15.08838067 98493,6917.886,95.438,540.575,538.927,0.0
53775.0,STARLINK-4722,PAYLOAD,2024-06-23 09:10:27,15.08841547,0.000114,53.216,196.9818,90.4452,269.667,3.9269e-05,3.37e-06,0.0,0 STARLINK-4722,1 53775U 22111C   24175.38226072  .00000337  00000-0  39269-4 0  9999,2 53775  53.2160 196.9818 0001140  90.4452 269.6670 15.08841547 99443,6917.876,95.437,540.529,538.952,0.0
53775.0,STARLINK-4722,PAYLOAD,2024-06-24 01:04:18,15.08839042,0.0001205,53.2162,194.0083,86.1577,273.9553,9.2669e-05,1.187e-05,0.0,0 STARLINK-4722,1 53775U 22111C   24176.04465987  .00001187  00000-0  92669-4 0  9990,2 53775  53.2162 194.0083 0001205  86.1577 273.9553 15.08839042 98736,6917.883,95.438,540.582,538.915,0.0
53775.0,STARLINK-4722,PAYLOAD,2024-06-24 07:25:51,15.08840276,0.0001212,53.2161,192.8188,85.8106,274.3025,9.7905e-05,1.271e-05,0.0,0 STARLINK-4722,1 53775U 22111C   24176.30961927  .00001271  00000-0  97905-4 0  9996,2 53775  53.2161 192.8188 0001212  85.8106 274.3025 15.08840276 99583,6917.88,95.438,540.583,538.906,0.0
53775.0,STARLINK-4722,PAYLOAD,2024-06-25 05:41:15,15.088409,0.0001178,53.2158,188.6555,86.6324,273.4803,3.9224e-05,3.36e-06,0.0,0 STARLINK-4722,1 53775U 22111C   24177.23698039  .00000336  00000-0  39224-4 0  9991,2 53775  53.2158 188.6555 0001178  86.6324 273.4803 15.08840900 98916,6917.878,95.437,540.558,538.928,0.0
53775.0,STARLINK-4722,PAYLOAD,2024-06-25 07:16:38,15.08840989,0.0001186,53.2158,188.3581,86.5756,273.5371,3.9254e-05,3.37e-06,0.0,0 STARLINK-4722,1 53775U 22111C   24177.30322025  .00000337  00000-0  39254-4 0  9992,2 53775  53.2158 188.3581 0001186  86.5756 273.5371 15.08840989 99738,6917.877,95.437,540.563,538.922,0.0
53775.0,STARLINK-4722,PAYLOAD,2024-06-26 07:07:25,15.08841164,0.0001203,53.2155,183.8979,90.6401,269.4729,3.6536e-05,2.94e-06,0.0,0 STARLINK-4722,1 53775U 22111C   24178.29681954  .00000294  00000-0  36536-4 0  9992,2 53775  53.2155 183.8979 0001203  90.6401 269.4729 15.08841164 99073,6917.877,95.437,540.574,538.91,0.0
53775.0,STARLINK-4722,PAYLOAD,2024-06-27 06:58:12,15.08836922,0.0001205,53.2154,179.4365,90.4597,269.6534,3.2804e-05,2.34e-06,0.0,0 STARLINK-4722,1 53775U 22111C   24179.29042326  .00000234  00000-0  32804-4 0  9995,2 53775  53.2154 179.4365 0001205  90.4597 269.6534 15.08836922 99227,6917.89,95.438,540.588,538.921,0.0
53775.0,STARLINK-4722,PAYLOAD,2024-06-28 06:48:59,15.08837597,0.0001197,53.2149,174.9766,91.7912,268.3217,4.0458e-05,3.56e-06,0.0,0 STARLINK-4722,1 53775U 22111C   24180.28402519  .00000356  00000-0  40458-4 0  9999,2 53775  53.2149 174.9766 0001197  91.7912 268.3217 15.08837597100182,6917.888,95.438,540.581,538.925,0.0
53775.0,STARLINK-4722,PAYLOAD,2024-06-29 05:04:22,15.08844467,9e-05,53.2137,170.8105,140.6477,219.4581,0.00011374,1.523e-05,0.0,0 STARLINK-4722,1 53775U 22111C   24181.21137414  .00001523  00000-0  11374-3 0  9993,2 53775  53.2137 170.8105 0000900 140.6477 219.4581 15.08844467 99511,6917.867,95.437,540.354,539.109,0.0
53775.0,STARLINK-4722,PAYLOAD,2024-06-29 06:39:47,15.08831014,9.9e-05,53.2146,170.5153,66.1429,293.9667,8.4177e-06,-1.54e-06,0.0,0 STARLINK-4722,1 53775U 22111C   24181.27762758 -.00000154  00000-0  84177-5 0  9997,2 53775  53.2146 170.5153 0000990  66.1429 293.9667 15.08831014 99526,6917.908,95.438,540.458,539.088,0.0
53775.0,STARLINK-4722,PAYLOAD,2024-06-29 16:12:05,15.08833394,0.0001008,53.2147,168.7309,71.5136,288.5966,2.7553e-05,1.51e-06,0.0,0 STARLINK-4722,1 53775U 22111C   24181.67506722  .00000151  00000-0  27553-4 0  9998,2 53775  53.2147 168.7309 0001008  71.5136 288.5966 15.08833394100398,6917.901,95.438,540.463,539.068,0.0
53775.0,STARLINK-4722,PAYLOAD,2024-06-30 08:05:57,15.08832473,0.0001131,53.2148,165.7581,74.8736,285.2382,3.7267e-06,-2.28e-06,0.0,0 STARLINK-4722,1 53775U 22111C   24182.33747191 -.00000228  00000-0  37267-5 0  9999,2 53775  53.2148 165.7581 0001131  74.8736 285.2382 15.08832473 99689,6917.903,95.438,540.551,538.986,0.0
53775.0,STARLINK-4722,PAYLOAD,2024-06-30 16:02:52,15.08836782,0.0001135,53.215,164.2716,76.9582,283.1537,6.7165e-05,7.81e-06,0.0,0 STARLINK-4722,1 53775U 22111C   24182.66866831  .00000781  00000-0  67165-4 0  9990,2 53775  53.2150 164.2716 0001135  76.9582 283.1537 15.08836782100546,6917.89,95.438,540.54,538.97,0.0
53775.0,STARLINK-4722,PAYLOAD,2024-07-01 04:45:57,15.08834684,0.0001094,53.2146,161.8935,67.2939,292.8169,0.00013423,1.849e-05,0.0,0 STARLINK-4722,1 53775U 22111C   24183.19858773  .00001849  00000-0  13423-3 0  9998,2 53775  53.2146 161.8935 0001094  67.2939 292.8169 15.08834684 99814,6917.897,95.438,540.518,539.005,0.0
53775.0,STARLINK-4722,PAYLOAD,2024-07-01 07:56:44,15.08839186,0.0001146,53.2153,161.2978,69.344,290.7675,0.00017582,2.511e-05,0.0,0 STARLINK-4722,1 53775U 22111C   24183.33106482  .00002511  00000-0  17582-3 0  9994,2 53775  53.2153 161.2978 0001146  69.3440 290.7675 15.08839186100646,6917.883,95.438,540.541,538.955,0.0
53775.0,STARLINK-4722,PAYLOAD,2024-07-01 15:53:39,15.08843446,0.0001165,53.2157,159.8115,69.1512,290.9605,0.00019296,2.785e-05,0.0,0 STARLINK-4722,1 53775U 22111C   24183.66226241  .00002785  00000-0  19296-3 0  9993,2 53775  53.2157 159.8115 0001165  69.1512 290.9605 15.08843446 99887,6917.87,95.437,540.541,538.929,0.0
53775.0,STARLINK-4722,PAYLOAD,2024-07-02 04:36:45,15.0883666,0.0001048,53.216,157.4306,81.8213,278.2898,7.6644e-05,9.32e-06,0.0,0 STARLINK-4722,1 53775U 22111C   24184.19219087  .00000932  00000-0  76644-4 0  9995,2 53775  53.2160 157.4306 0001048  81.8213 278.2898 15.08836660 99968,6917.891,95.438,540.481,539.031,0.0
53775.0,STARLINK-4722,PAYLOAD,2024-07-02 07:47:31,15.08838246,0.0001099,53.2168,156.8344,87.3645,272.7472,8.2942e-05,1.032e-05,0.0,0 STARLINK-4722,1 53775U 22111C   24184.32466960  .00001032  00000-0  82942-4 0  9994,2 53775  53.2168 156.8344 0001099  87.3645 272.7472 15.08838246100790,6917.886,95.438,540.511,538.99,0.0
53775.0,STARLINK-4722,PAYLOAD,2024-07-02 15:44:26,15.08842844,0.0001136,53.2173,155.3486,86.4271,273.6851,9.941e-05,1.295e-05,0.0,0 STARLINK-4722,1 53775U 22111C   24184.65586598  .00001295  00000-0  99410-4 0  9999,2 53775  53.2173 155.3486 0001136  86.4271 273.6851 15.08842844100840,6917.872,95.437,540.523,538.951,0.0
53775.0,STARLINK-4722,PAYLOAD,2024-07-03 21:56:46,15.08841644,0.0001284,53.2176,149.6997,91.621,268.4929,1.1752e-05,-1.01e-06,0.0,0 STARLINK-4722,1 53775U 22111C   24185.91442885 -.00000101  00000-0  11752-4 0  9998,2 53775  53.2176 149.6997 0001284  91.6210 268.4929 15.08841644101038,6917.875,95.437,540.629,538.852,0.0
53775.0,STARLINK-4722,PAYLOAD,2024-07-04 04:18:19,15.0882805,0.0001297,53.2176,148.5113,90.406,269.7081,0.00018305,2.626e-05,0.0,0 STARLINK-4722,1 53775U 22111C   24186.17939446  .00002626  00000-0  18305-3 0  9994,2 53775  53.2176 148.5113 0001297  90.4060 269.7081 15.08828050100263,6917.917,95.438,540.679,538.885,0.0
53775.0,STARLINK-4722,PAYLOAD,2024-07-04 07:29:05,15.08839467,0.0001285,53.2176,147.9165,92.2158,267.8981,3.8756e-05,3.29e-06,0.0,0 STARLINK-4722,1 53775U 22111C   24186.31186981  .00000329  00000-0  38756-4 0  9999,2 53775  53.2176 147.9165 0001285  92.2158 267.8981 15.08839467100282,6917.882,95.438,540.636,538.858,0.0
53775.0,STARLINK-4722,PAYLOAD,2024-07-05 13:41:24,15.0884583,0.0001161,53.2166,142.2666,87.9474,272.1651,0.00011955,1.616e-05,0.0,0 STARLINK-4722,1 53775U 22111C   24187.57042472  .00001616  00000-0  11955-3 0  9995,2 53775  53.2166 142.2666 0001161  87.9474 272.1651 15.08845830101285,6917.863,95.437,540.531,538.924,0.0
53775.0,STARLINK-4722,PAYLOAD,2024-07-05 21:38:20,15.08842444,0.0002243,53.2162,140.7789,80.3744,279.7502,9.7279e-05,1.26e-05,0.0,0 STARLINK-4722,1 53775U 22111C   24187.90163121  .00001260  00000-0  97279-4 0  9996,2 53775  53.2162 140.7789 0002243  80.3744 279.7502 15.08842444100521,6917.873,95.437,541.29,538.186,0.0
53775.0,STARLINK-4722,PAYLOAD,2024-07-06 03:59:54,15.088321,0.0001309,53.2173,139.5917,95.8624,264.2518,1.1813e-05,-1e-06,0.0,0 STARLINK-4722,1 53775U 22111C   24188.16659932 -.00000100  00000-0  11813-4 0  9998,2 53775  53.2173 139.5917 0001309  95.8624 264.2518 15.08832100100560,6917.905,95.438,540.675,538.864,0.0
53775.0,STARLINK-4722,PAYLOAD,2024-07-06 13:32:12,15.08840646,0.0001294,53.2174,137.808,95.9475,264.1665,6.6554e-05,7.71e-06,0.0,0 STARLINK-4722,1 53775U 22111C   24188.56403290  .00000771  00000-0  66554-4 0  9991,2 53775  53.2174 137.8080 0001294  95.9475 264.1665 15.08840646101434,6917.878,95.438,540.639,538.848,0.0
53775.0,STARLINK-4722,PAYLOAD,2024-07-07 05:26:04,15.08835208,0.0001517,53.218,134.8367,97.8365,262.28,-1.3127e-05,-4.97e-06,0.0,0 STARLINK-4722,1 53775U 22111C   24189.22644287 -.00000497  00000-0 -13127-4 0  9993,2 53775  53.2180 134.8367 0001517  97.8365 262.2800 15.08835208100722,6917.895,95.438,540.809,538.711,0.0
